[{"OBJECT_NAME":"YAOGAN-30 07B","OBJECT_ID":"2020-021B","EPOCH":"2026-03-09T12:49:57.763776","MEAN_MOTION":15.021739,"ECCENTRICITY":0.00015807,"INCLINATION":34.9937,"RA_OF_ASC_NODE":97.6546,"ARG_OF_PERICENTER":52.3271,"MEAN_ANOMALY":307.7581,"EPHEMERIS_TYPE":0,"CLASSIFICATION_TYPE":"U","NORAD_CAT_ID":45461,"ELEMENT_SET_NO":999,"REV_AT_EPOCH":32549,"BSTAR":0.00028705108,"MEAN_MOTION_DOT":3.828e-5,"MEAN_MOTION_DDOT":0},{"OBJECT_NAME":"STARLINK-30487","OBJECT_ID":"2023-147M","EPOCH":"2026-03-09T01:08:00.996864","MEAN_MOTION":15.02542965,"ECCENTRICITY":4.95e-6,"INCLINATION":43.0054,"RA_OF_ASC_NODE":329.332,"ARG_OF_PERICENTER":222.8366,"MEAN_ANOMALY":137.2472,"EPHEMERIS_TYPE":0,"CLASSIFICATION_TYPE":"U","NORAD_CAT_ID":57924,"ELEMENT_SET_NO":999,"REV_AT_EPOCH":13652,"BSTAR":8.0172178e-5,"MEAN_MOTION_DOT":8.8e-6,"MEAN_MOTION_DDOT":0}]
