YAOGAN-30 07B           
1 45461U 20021B   26068.53469634  .00003828  00000+0  28705-3 0  9992
2 45461  34.9937  97.6546 0001580  52.3271 307.7581 15.02173900325490
STARLINK-30487          
1 57924U 23147M   26068.04723376  .00000880  00000+0  80172-4 0  9995
2 57924  43.0054 329.3320 0000049 222.8366 137.2472 15.02542965136521
